[{"OBJECT_NAME":"STARLINK-35074","OBJECT_ID":"2025-192U","EPOCH":"2026-03-09T21:16:46.062336","MEAN_MOTION":15.30210364,"ECCENTRICITY":7.971e-5,"INCLINATION":53.1588,"RA_OF_ASC_NODE":231.4828,"ARG_OF_PERICENTER":59.4601,"MEAN_ANOMALY":300.6479,"EPHEMERIS_TYPE":0,"CLASSIFICATION_TYPE":"U","NORAD_CAT_ID":65422,"ELEMENT_SET_NO":999,"REV_AT_EPOCH":2941,"BSTAR":0.0010780898,"MEAN_MOTION_DOT":0.00031717,"MEAN_MOTION_DDOT":0},{"OBJECT_NAME":"ELECTRON KICK STAGE R\/B","OBJECT_ID":"2022-147B","EPOCH":"2026-03-09T22:28:20.187264","MEAN_MOTION":15.28920172,"ECCENTRICITY":0.00095089,"INCLINATION":97.642,"RA_OF_ASC_NODE":85.1135,"ARG_OF_PERICENTER":110.4683,"MEAN_ANOMALY":249.7578,"EPHEMERIS_TYPE":0,"CLASSIFICATION_TYPE":"U","NORAD_CAT_ID":54228,"ELEMENT_SET_NO":999,"REV_AT_EPOCH":18390,"BSTAR":0.00083201931,"MEAN_MOTION_DOT":0.00023374,"MEAN_MOTION_DDOT":0}]
